SENTINEL-2B             
1 42063U 17013A   20133.07462876  .00000002  00000-0  17473-4 0  9994
2 42063  98.5706 207.8154 0001150  76.7754 283.3558 14.30814347166172
